[{"OBJECT_NAME":"RESOURCESAT-2A","OBJECT_ID":"2016-074A","EPOCH":"2026-03-03T05:10:19.981056","MEAN_MOTION":14.21596856,"ECCENTRICITY":0.0002769,"INCLINATION":98.7622,"RA_OF_ASC_NODE":136.5536,"ARG_OF_PERICENTER":49.8239,"MEAN_ANOMALY":310.318,"EPHEMERIS_TYPE":0,"CLASSIFICATION_TYPE":"U","NORAD_CAT_ID":41877,"ELEMENT_SET_NO":999,"REV_AT_EPOCH":47924,"BSTAR":-1.1172e-5,"MEAN_MOTION_DOT":-6.9e-7,"MEAN_MOTION_DDOT":0},{"OBJECT_NAME":"CARTOSAT-2D","OBJECT_ID":"2017-008A","EPOCH":"2026-03-03T04:25:42.406176","MEAN_MOTION":15.19304235,"ECCENTRICITY":0.0004532,"INCLINATION":97.4245,"RA_OF_ASC_NODE":123.3966,"ARG_OF_PERICENTER":243.5457,"MEAN_ANOMALY":116.5313,"EPHEMERIS_TYPE":0,"CLASSIFICATION_TYPE":"U","NORAD_CAT_ID":41948,"ELEMENT_SET_NO":999,"REV_AT_EPOCH":50148,"BSTAR":0.00025921,"MEAN_MOTION_DOT":5.405e-5,"MEAN_MOTION_DDOT":0},{"OBJECT_NAME":"SENTINEL-2B","OBJECT_ID":"2017-013A","EPOCH":"2026-03-03T04:38:38.999616","MEAN_MOTION":14.30816733,"ECCENTRICITY":0.0001089,"INCLINATION":98.5675,"RA_OF_ASC_NODE":138.4818,"ARG_OF_PERICENTER":95.338,"MEAN_ANOMALY":264.7927,"EPHEMERIS_TYPE":0,"CLASSIFICATION_TYPE":"U","NORAD_CAT_ID":42063,"ELEMENT_SET_NO":999,"REV_AT_EPOCH":46948,"BSTAR":3.9458e-5,"MEAN_MOTION_DOT":6.0e-7,"MEAN_MOTION_DDOT":0},{"OBJECT_NAME":"CARTOSAT-2E","OBJECT_ID":"2017-036C","EPOCH":"2026-03-03T04:50:07.694880","MEAN_MOTION":15.19244865,"ECCENTRICITY":0.0002953,"INCLINATION":97.4415,"RA_OF_ASC_NODE":123.6783,"ARG_OF_PERICENTER":325.8601,"MEAN_ANOMALY":34.2443,"EPHEMERIS_TYPE":0,"CLASSIFICATION_TYPE":"U","NORAD_CAT_ID":42767,"ELEMENT_SET_NO":999,"REV_AT_EPOCH":48205,"BSTAR":0.00019785,"MEAN_MOTION_DOT":4.101e-5,"MEAN_MOTION_DDOT":0},{"OBJECT_NAME":"FORMOSAT-5","OBJECT_ID":"2017-049A","EPOCH":"2026-03-03T04:33:11.110752","MEAN_MOTION":14.5081702,"ECCENTRICITY":0.0011999,"INCLINATION":98.2323,"RA_OF_ASC_NODE":139.8379,"ARG_OF_PERICENTER":54.968,"MEAN_ANOMALY":305.2639,"EPHEMERIS_TYPE":0,"CLASSIFICATION_TYPE":"U","NORAD_CAT_ID":42920,"ELEMENT_SET_NO":999,"REV_AT_EPOCH":45130,"BSTAR":7.1468e-5,"MEAN_MOTION_DOT":2.38e-6,"MEAN_MOTION_DDOT":0},{"OBJECT_NAME":"SENTINEL-5P","OBJECT_ID":"2017-064A","EPOCH":"2026-03-02T20:06:50.145696","MEAN_MOTION":14.19547104,"ECCENTRICITY":0.0001088,"INCLINATION":98.7874,"RA_OF_ASC_NODE":4.7507,"ARG_OF_PERICENTER":80.645,"MEAN_ANOMALY":279.4849,"EPHEMERIS_TYPE":0,"CLASSIFICATION_TYPE":"U","NORAD_CAT_ID":42969,"ELEMENT_SET_NO":999,"REV_AT_EPOCH":43447,"BSTAR":5.8464e-5,"MEAN_MOTION_DOT":7.9e-7,"MEAN_MOTION_DDOT":0},{"OBJECT_NAME":"SKYSAT-C11","OBJECT_ID":"2017-068A","EPOCH":"2026-03-02T22:44:19.032864","MEAN_MOTION":15.51895202,"ECCENTRICITY":7.58e-5,"INCLINATION":97.4186,"RA_OF_ASC_NODE":206.7117,"ARG_OF_PERICENTER":87.5004,"MEAN_ANOMALY":272.6335,"EPHEMERIS_TYPE":0,"CLASSIFICATION_TYPE":"U","NORAD_CAT_ID":42987,"ELEMENT_SET_NO":999,"REV_AT_EPOCH":46673,"BSTAR":0.00052867,"MEAN_MOTION_DOT":0.00031667,"MEAN_MOTION_DDOT":0},{"OBJECT_NAME":"SKYSAT-C10","OBJECT_ID":"2017-068B","EPOCH":"2026-03-02T22:35:45.676032","MEAN_MOTION":15.32479422,"ECCENTRICITY":0.0001164,"INCLINATION":97.4323,"RA_OF_ASC_NODE":198.0229,"ARG_OF_PERICENTER":90.7199,"MEAN_ANOMALY":269.4176,"EPHEMERIS_TYPE":0,"CLASSIFICATION_TYPE":"U","NORAD_CAT_ID":42988,"ELEMENT_SET_NO":999,"REV_AT_EPOCH":46607,"BSTAR":0.00042293,"MEAN_MOTION_DOT":0.00013194,"MEAN_MOTION_DDOT":0},{"OBJECT_NAME":"SKYSAT-C9","OBJECT_ID":"2017-068C","EPOCH":"2026-03-02T21:14:19.057920","MEAN_MOTION":15.3861885,"ECCENTRICITY":0.0009644,"INCLINATION":97.4248,"RA_OF_ASC_NODE":197.9454,"ARG_OF_PERICENTER":155.2859,"MEAN_ANOMALY":204.885,"EPHEMERIS_TYPE":0,"CLASSIFICATION_TYPE":"U","NORAD_CAT_ID":42989,"ELEMENT_SET_NO":999,"REV_AT_EPOCH":46639,"BSTAR":0.00046809,"MEAN_MOTION_DOT":0.00017815,"MEAN_MOTION_DDOT":0},{"OBJECT_NAME":"SKYSAT-C8","OBJECT_ID":"2017-068D","EPOCH":"2026-03-02T22:26:27.996864","MEAN_MOTION":15.34556497,"ECCENTRICITY":0.0001184,"INCLINATION":97.4352,"RA_OF_ASC_NODE":197.4313,"ARG_OF_PERICENTER":113.5427,"MEAN_ANOMALY":246.594,"EPHEMERIS_TYPE":0,"CLASSIFICATION_TYPE":"U","NORAD_CAT_ID":42990,"ELEMENT_SET_NO":999,"REV_AT_EPOCH":46600,"BSTAR":0.00023358,"MEAN_MOTION_DOT":7.739e-5,"MEAN_MOTION_DDOT":0},{"OBJECT_NAME":"SKYSAT-C7","OBJECT_ID":"2017-068E","EPOCH":"2026-03-02T22:11:52.200672","MEAN_MOTION":15.34499388,"ECCENTRICITY":0.0007361,"INCLINATION":97.4353,"RA_OF_ASC_NODE":198.4041,"ARG_OF_PERICENTER":124.5948,"MEAN_ANOMALY":235.599,"EPHEMERIS_TYPE":0,"CLASSIFICATION_TYPE":"U","NORAD_CAT_ID":42991,"ELEMENT_SET_NO":999,"REV_AT_EPOCH":46606,"BSTAR":0.00045156,"MEAN_MOTION_DOT":0.00015035,"MEAN_MOTION_DDOT":0},{"OBJECT_NAME":"SKYSAT-C6","OBJECT_ID":"2017-068F","EPOCH":"2026-03-03T04:09:14.966496","MEAN_MOTION":15.32551843,"ECCENTRICITY":0.0003551,"INCLINATION":97.4389,"RA_OF_ASC_NODE":198.9573,"ARG_OF_PERICENTER":128.0954,"MEAN_ANOMALY":232.0608,"EPHEMERIS_TYPE":0,"CLASSIFICATION_TYPE":"U","NORAD_CAT_ID":42992,"ELEMENT_SET_NO":999,"REV_AT_EPOCH":46607,"BSTAR":0.00043091,"MEAN_MOTION_DOT":0.00013477,"MEAN_MOTION_DDOT":0},{"OBJECT_NAME":"CARTOSAT-2F","OBJECT_ID":"2018-004A","EPOCH":"2026-03-03T04:01:15.210624","MEAN_MOTION":15.19187498,"ECCENTRICITY":6.43e-5,"INCLINATION":97.4177,"RA_OF_ASC_NODE":123.4446,"ARG_OF_PERICENTER":266.8698,"MEAN_ANOMALY":93.2463,"EPHEMERIS_TYPE":0,"CLASSIFICATION_TYPE":"U","NORAD_CAT_ID":43111,"ELEMENT_SET_NO":999,"REV_AT_EPOCH":45123,"BSTAR":0.0003187,"MEAN_MOTION_DOT":6.639e-5,"MEAN_MOTION_DDOT":0},{"OBJECT_NAME":"GAOFEN-1 02","OBJECT_ID":"2018-031A","EPOCH":"2026-03-03T04:03:53.490240","MEAN_MOTION":14.76465928,"ECCENTRICITY":0.0002872,"INCLINATION":98.0666,"RA_OF_ASC_NODE":124.9307,"ARG_OF_PERICENTER":7.4608,"MEAN_ANOMALY":352.6644,"EPHEMERIS_TYPE":0,"CLASSIFICATION_TYPE":"U","NORAD_CAT_ID":43259,"ELEMENT_SET_NO":999,"REV_AT_EPOCH":42705,"BSTAR":0.00010025,"MEAN_MOTION_DOT":6.46e-6,"MEAN_MOTION_DDOT":0},{"OBJECT_NAME":"GAOFEN-1 03","OBJECT_ID":"2018-031B","EPOCH":"2026-03-03T05:09:59.849856","MEAN_MOTION":14.76462254,"ECCENTRICITY":0.0003981,"INCLINATION":98.0648,"RA_OF_ASC_NODE":124.8454,"ARG_OF_PERICENTER":67.0156,"MEAN_ANOMALY":293.1473,"EPHEMERIS_TYPE":0,"CLASSIFICATION_TYPE":"U","NORAD_CAT_ID":43260,"ELEMENT_SET_NO":999,"REV_AT_EPOCH":42705,"BSTAR":0.00015124,"MEAN_MOTION_DOT":1.001e-5,"MEAN_MOTION_DDOT":0},{"OBJECT_NAME":"GAOFEN-1 04","OBJECT_ID":"2018-031D","EPOCH":"2026-03-03T04:35:00.140640","MEAN_MOTION":14.76463053,"ECCENTRICITY":0.0002057,"INCLINATION":98.0667,"RA_OF_ASC_NODE":124.9998,"ARG_OF_PERICENTER":89.5277,"MEAN_ANOMALY":270.6168,"EPHEMERIS_TYPE":0,"CLASSIFICATION_TYPE":"U","NORAD_CAT_ID":43262,"ELEMENT_SET_NO":999,"REV_AT_EPOCH":42704,"BSTAR":0.00012841,"MEAN_MOTION_DOT":8.42e-6,"MEAN_MOTION_DDOT":0},{"OBJECT_NAME":"SENTINEL-3B","OBJECT_ID":"2018-039A","EPOCH":"2026-03-03T03:40:42.319776","MEAN_MOTION":14.26741918,"ECCENTRICITY":8.31e-5,"INCLINATION":98.6242,"RA_OF_ASC_NODE":131.1821,"ARG_OF_PERICENTER":127.2842,"MEAN_ANOMALY":232.8415,"EPHEMERIS_TYPE":0,"CLASSIFICATION_TYPE":"U","NORAD_CAT_ID":43437,"ELEMENT_SET_NO":999,"REV_AT_EPOCH":40900,"BSTAR":7.9462e-5,"MEAN_MOTION_DOT":1.49e-6,"MEAN_MOTION_DDOT":0}]
