RESOURCESAT-2A          
1 41877U 16074A   26062.21550904 -.00000069  00000+0 -11172-4 0  9999
2 41877  98.7622 136.5536 0002769  49.8239 310.3180 14.21596856479240
CARTOSAT-2D             
1 41948U 17008A   26062.18451859  .00005405  00000+0  25921-3 0  9994
2 41948  97.4245 123.3966 0004532 243.5457 116.5313 15.19304235501484
SENTINEL-2B             
1 42063U 17013A   26062.19350694  .00000060  00000+0  39458-4 0  9998
2 42063  98.5675 138.4818 0001089  95.3380 264.7927 14.30816733469480
CARTOSAT-2E             
1 42767U 17036C   26062.20147795  .00004101  00000+0  19785-3 0  9992
2 42767  97.4415 123.6783 0002953 325.8601  34.2443 15.19244865482056
FORMOSAT-5              
1 42920U 17049A   26062.18971193  .00000238  00000+0  71468-4 0  9995
2 42920  98.2323 139.8379 0011999  54.9680 305.2639 14.50817020451306
SENTINEL-5P             
1 42969U 17064A   26061.83808039  .00000079  00000+0  58464-4 0  9998
2 42969  98.7874   4.7507 0001088  80.6450 279.4849 14.19547104434479
SKYSAT-C11              
1 42987U 17068A   26061.94744251  .00031667  00000+0  52867-3 0  9996
2 42987  97.4186 206.7117 0000758  87.5004 272.6335 15.51895202466737
SKYSAT-C10              
1 42988U 17068B   26061.94150088  .00013194  00000+0  42293-3 0  9993
2 42988  97.4323 198.0229 0001164  90.7199 269.4176 15.32479422466076
SKYSAT-C9               
1 42989U 17068C   26061.88494280  .00017815  00000+0  46809-3 0  9993
2 42989  97.4248 197.9454 0009644 155.2859 204.8850 15.38618850466395
SKYSAT-C8               
1 42990U 17068D   26061.93504626  .00007739  00000+0  23358-3 0  9995
2 42990  97.4352 197.4313 0001184 113.5427 246.5940 15.34556497466006
SKYSAT-C7               
1 42991U 17068E   26061.92490973  .00015035  00000+0  45156-3 0  9992
2 42991  97.4353 198.4041 0007361 124.5948 235.5990 15.34499388466064
SKYSAT-C6               
1 42992U 17068F   26062.17308989  .00013477  00000+0  43091-3 0  9990
2 42992  97.4389 198.9573 0003551 128.0954 232.0608 15.32551843466074
CARTOSAT-2F             
1 43111U 18004A   26062.16753716  .00006639  00000+0  31870-3 0  9990
2 43111  97.4177 123.4446 0000643 266.8698  93.2463 15.19187498451234
GAOFEN-1 02             
1 43259U 18031A   26062.16936910  .00000646  00000+0  10025-3 0  9993
2 43259  98.0666 124.9307 0002872   7.4608 352.6644 14.76465928427050
GAOFEN-1 03             
1 43260U 18031B   26062.21527604  .00001001  00000+0  15124-3 0  9998
2 43260  98.0648 124.8454 0003981  67.0156 293.1473 14.76462254427054
GAOFEN-1 04             
1 43262U 18031D   26062.19097385  .00000842  00000+0  12841-3 0  9990
2 43262  98.0667 124.9998 0002057  89.5277 270.6168 14.76463053427045
SENTINEL-3B             
1 43437U 18039A   26062.15326759  .00000149  00000+0  79462-4 0  9991
2 43437  98.6242 131.1821 0000831 127.2842 232.8415 14.26741918409000
